SL-16 R/B               
1 22566U 93016B   26049.97976858 -.00000172  00000+0 -63676-4 0  9993
2 22566  71.0044 254.4793 0010639 339.6369  20.4328 14.15300214699522
COSMOS 2242             
1 22626U 93024A   26050.11460785  .00001716  00000+0  14850-3 0  9996
2 22626  82.5175 284.4852 0016757  13.0651 347.1002 14.96469323777615
SL-16 R/B               
1 22803U 93059B   26050.40809252 -.00000081  00000+0 -16030-4 0  9998
2 22803  70.9894  49.6784 0019252 241.7243 118.1938 14.17227350676949
ARIANE 40 R/B           
1 22830U 93061H   26050.19343162  .00000173  00000+0  79232-4 0  9993
2 22830  98.4957 119.4425 0010160 344.7393  15.3483 14.32850486691456
COSMOS 2278             
1 23087U 94023A   26050.49239413  .00000231  00000+0  14521-3 0  9997
2 23087  71.0511 213.1676 0007099  49.5568 310.6172 14.14365695642236
SL-16 R/B               
1 23088U 94023B   26050.47641875  .00000335  00000+0  19768-3 0  9998
2 23088  70.9992 109.1396 0004871 302.5979  57.4673 14.15009472643517
SL-16 R/B               
1 23343U 94074B   26050.47065093  .00000431  00000+0  64485-4 0  9994
2 23343  97.7135  82.0241 0005144 283.6881 173.2993 14.79385116684553
SL-16 R/B               
1 23405U 94077B   26050.39446237  .00000136  00000+0  93843-4 0  9992
2 23405  70.9836  30.9767 0003902 229.6618 130.4164 14.15563241613640
ARIANE 40+ R/B          
1 23561U 95021B   26050.18485984  .00000253  00000+0  94581-4 0  9994
2 23561  98.4537 121.9146 0006735 188.1016 196.5795 14.39757998616585
SL-16 R/B               
1 23705U 95058B   26050.47120381 -.00000157  00000+0 -56085-4 0  9995
2 23705  71.0199 218.5025 0011436 157.2744 202.8888 14.15495646565270
SL-16 R/B               
1 24298U 96051B   26050.39833825  .00000080  00000+0  69861-4 0  9991
2 24298  70.7574 213.9533 0016745 174.2693 185.8621 14.12410456519068
ORBVIEW 2 (SEASTAR)     
1 24883U 97037A   26050.43465968  .00000237  00000+0  98718-4 0  9997
2 24883  98.8533 214.2658 0003163 108.8416 251.3112 14.35479723505855
