CCSDS_OMM_VERS = 2.0
CREATION_DATE  = 
ORIGINATOR     = 

OBJECT_NAME    = SL-16 R/B
OBJECT_ID      = 1993-016B
CENTER_NAME    = EARTH
REF_FRAME      = TEME
TIME_SYSTEM    = UTC
MEAN_ELEMENT_THEORY = SGP/SGP4

EPOCH          = 2026-02-18T23:30:52.005312
MEAN_MOTION    = 14.15300214
ECCENTRICITY   = .00106394
INCLINATION    = 71.0044
RA_OF_ASC_NODE = 254.4793
ARG_OF_PERICENTER = 339.6369
MEAN_ANOMALY   = 20.4328

EPHEMERIS_TYPE = 0
CLASSIFICATION_TYPE = U
NORAD_CAT_ID   = 22566
ELEMENT_SET_NO = 999
REV_AT_EPOCH   = 69952
BSTAR          = -.63675755E-4
MEAN_MOTION_DOT = -.172E-5
MEAN_MOTION_DDOT = 0

CCSDS_OMM_VERS = 2.0
CREATION_DATE  = 
ORIGINATOR     = 

OBJECT_NAME    = COSMOS 2242
OBJECT_ID      = 1993-024A
CENTER_NAME    = EARTH
REF_FRAME      = TEME
TIME_SYSTEM    = UTC
MEAN_ELEMENT_THEORY = SGP/SGP4

EPOCH          = 2026-02-19T02:45:02.118240
MEAN_MOTION    = 14.96469323
ECCENTRICITY   = .00167578
INCLINATION    = 82.5175
RA_OF_ASC_NODE = 284.4852
ARG_OF_PERICENTER = 13.0651
MEAN_ANOMALY   = 347.1002

EPHEMERIS_TYPE = 0
CLASSIFICATION_TYPE = U
NORAD_CAT_ID   = 22626
ELEMENT_SET_NO = 999
REV_AT_EPOCH   = 77761
BSTAR          = .14850387E-3
MEAN_MOTION_DOT = .1716E-4
MEAN_MOTION_DDOT = 0

CCSDS_OMM_VERS = 2.0
CREATION_DATE  = 
ORIGINATOR     = 

OBJECT_NAME    = SL-16 R/B
OBJECT_ID      = 1993-059B
CENTER_NAME    = EARTH
REF_FRAME      = TEME
TIME_SYSTEM    = UTC
MEAN_ELEMENT_THEORY = SGP/SGP4

EPOCH          = 2026-02-19T09:47:39.193728
MEAN_MOTION    = 14.17227350
ECCENTRICITY   = .0019252
INCLINATION    = 70.9894
RA_OF_ASC_NODE = 49.6784
ARG_OF_PERICENTER = 241.7243
MEAN_ANOMALY   = 118.1938

EPHEMERIS_TYPE = 0
CLASSIFICATION_TYPE = U
NORAD_CAT_ID   = 22803
ELEMENT_SET_NO = 999
REV_AT_EPOCH   = 67694
BSTAR          = -.1603E-4
MEAN_MOTION_DOT = -.81E-6
MEAN_MOTION_DDOT = 0

CCSDS_OMM_VERS = 2.0
CREATION_DATE  = 
ORIGINATOR     = 

OBJECT_NAME    = ARIANE 40 R/B
OBJECT_ID      = 1993-061H
CENTER_NAME    = EARTH
REF_FRAME      = TEME
TIME_SYSTEM    = UTC
MEAN_ELEMENT_THEORY = SGP/SGP4

EPOCH          = 2026-02-19T04:38:32.491968
MEAN_MOTION    = 14.32850486
ECCENTRICITY   = .00101609
INCLINATION    = 98.4957
RA_OF_ASC_NODE = 119.4425
ARG_OF_PERICENTER = 344.7393
MEAN_ANOMALY   = 15.3483

EPHEMERIS_TYPE = 0
CLASSIFICATION_TYPE = U
NORAD_CAT_ID   = 22830
ELEMENT_SET_NO = 999
REV_AT_EPOCH   = 69145
BSTAR          = .7923151E-4
MEAN_MOTION_DOT = .173E-5
MEAN_MOTION_DDOT = 0

CCSDS_OMM_VERS = 2.0
CREATION_DATE  = 
ORIGINATOR     = 

OBJECT_NAME    = COSMOS 2278
OBJECT_ID      = 1994-023A
CENTER_NAME    = EARTH
REF_FRAME      = TEME
TIME_SYSTEM    = UTC
MEAN_ELEMENT_THEORY = SGP/SGP4

EPOCH          = 2026-02-19T11:49:02.852832
MEAN_MOTION    = 14.14365695
ECCENTRICITY   = .0007099
INCLINATION    = 71.0511
RA_OF_ASC_NODE = 213.1676
ARG_OF_PERICENTER = 49.5568
MEAN_ANOMALY   = 310.6172

EPHEMERIS_TYPE = 0
CLASSIFICATION_TYPE = U
NORAD_CAT_ID   = 23087
ELEMENT_SET_NO = 999
REV_AT_EPOCH   = 64223
BSTAR          = .14521E-3
MEAN_MOTION_DOT = .231E-5
MEAN_MOTION_DDOT = 0

CCSDS_OMM_VERS = 2.0
CREATION_DATE  = 
ORIGINATOR     = 

OBJECT_NAME    = SL-16 R/B
OBJECT_ID      = 1994-023B
CENTER_NAME    = EARTH
REF_FRAME      = TEME
TIME_SYSTEM    = UTC
MEAN_ELEMENT_THEORY = SGP/SGP4

EPOCH          = 2026-02-19T11:26:02.580000
MEAN_MOTION    = 14.15009472
ECCENTRICITY   = .0004871
INCLINATION    = 70.9992
RA_OF_ASC_NODE = 109.1396
ARG_OF_PERICENTER = 302.5979
MEAN_ANOMALY   = 57.4673

EPHEMERIS_TYPE = 0
CLASSIFICATION_TYPE = U
NORAD_CAT_ID   = 23088
ELEMENT_SET_NO = 999
REV_AT_EPOCH   = 64351
BSTAR          = .19768E-3
MEAN_MOTION_DOT = .335E-5
MEAN_MOTION_DDOT = 0

CCSDS_OMM_VERS = 2.0
CREATION_DATE  = 
ORIGINATOR     = 

OBJECT_NAME    = SL-16 R/B
OBJECT_ID      = 1994-074B
CENTER_NAME    = EARTH
REF_FRAME      = TEME
TIME_SYSTEM    = UTC
MEAN_ELEMENT_THEORY = SGP/SGP4

EPOCH          = 2026-02-19T11:17:44.240352
MEAN_MOTION    = 14.79385116
ECCENTRICITY   = .0005144
INCLINATION    = 97.7135
RA_OF_ASC_NODE = 82.0241
ARG_OF_PERICENTER = 283.6881
MEAN_ANOMALY   = 173.2993

EPHEMERIS_TYPE = 0
CLASSIFICATION_TYPE = U
NORAD_CAT_ID   = 23343
ELEMENT_SET_NO = 999
REV_AT_EPOCH   = 68455
BSTAR          = .64485E-4
MEAN_MOTION_DOT = .431E-5
MEAN_MOTION_DDOT = 0

CCSDS_OMM_VERS = 2.0
CREATION_DATE  = 
ORIGINATOR     = 

OBJECT_NAME    = SL-16 R/B
OBJECT_ID      = 1994-077B
CENTER_NAME    = EARTH
REF_FRAME      = TEME
TIME_SYSTEM    = UTC
MEAN_ELEMENT_THEORY = SGP/SGP4

EPOCH          = 2026-02-19T09:28:01.548768
MEAN_MOTION    = 14.15563241
ECCENTRICITY   = .0003902
INCLINATION    = 70.9836
RA_OF_ASC_NODE = 30.9767
ARG_OF_PERICENTER = 229.6618
MEAN_ANOMALY   = 130.4164

EPHEMERIS_TYPE = 0
CLASSIFICATION_TYPE = U
NORAD_CAT_ID   = 23405
ELEMENT_SET_NO = 999
REV_AT_EPOCH   = 61364
BSTAR          = .93843E-4
MEAN_MOTION_DOT = .136E-5
MEAN_MOTION_DDOT = 0

CCSDS_OMM_VERS = 2.0
CREATION_DATE  = 
ORIGINATOR     = 

OBJECT_NAME    = ARIANE 40+ R/B
OBJECT_ID      = 1995-021B
CENTER_NAME    = EARTH
REF_FRAME      = TEME
TIME_SYSTEM    = UTC
MEAN_ELEMENT_THEORY = SGP/SGP4

EPOCH          = 2026-02-19T04:26:11.890176
MEAN_MOTION    = 14.39757998
ECCENTRICITY   = .0006735
INCLINATION    = 98.4537
RA_OF_ASC_NODE = 121.9146
ARG_OF_PERICENTER = 188.1016
MEAN_ANOMALY   = 196.5795

EPHEMERIS_TYPE = 0
CLASSIFICATION_TYPE = U
NORAD_CAT_ID   = 23561
ELEMENT_SET_NO = 999
REV_AT_EPOCH   = 61658
BSTAR          = .94580524E-4
MEAN_MOTION_DOT = .253E-5
MEAN_MOTION_DDOT = 0

CCSDS_OMM_VERS = 2.0
CREATION_DATE  = 
ORIGINATOR     = 

OBJECT_NAME    = SL-16 R/B
OBJECT_ID      = 1995-058B
CENTER_NAME    = EARTH
REF_FRAME      = TEME
TIME_SYSTEM    = UTC
MEAN_ELEMENT_THEORY = SGP/SGP4

EPOCH          = 2026-02-19T11:18:32.009184
MEAN_MOTION    = 14.15495646
ECCENTRICITY   = .0011436
INCLINATION    = 71.0199
RA_OF_ASC_NODE = 218.5025
ARG_OF_PERICENTER = 157.2744
MEAN_ANOMALY   = 202.8888

EPHEMERIS_TYPE = 0
CLASSIFICATION_TYPE = U
NORAD_CAT_ID   = 23705
ELEMENT_SET_NO = 999
REV_AT_EPOCH   = 56527
BSTAR          = -.56085E-4
MEAN_MOTION_DOT = -.157E-5
MEAN_MOTION_DDOT = 0

CCSDS_OMM_VERS = 2.0
CREATION_DATE  = 
ORIGINATOR     = 

OBJECT_NAME    = SL-16 R/B
OBJECT_ID      = 1996-051B
CENTER_NAME    = EARTH
REF_FRAME      = TEME
TIME_SYSTEM    = UTC
MEAN_ELEMENT_THEORY = SGP/SGP4

EPOCH          = 2026-02-19T09:33:36.424800
MEAN_MOTION    = 14.12410456
ECCENTRICITY   = .0016745
INCLINATION    = 70.7574
RA_OF_ASC_NODE = 213.9533
ARG_OF_PERICENTER = 174.2693
MEAN_ANOMALY   = 185.8621

EPHEMERIS_TYPE = 0
CLASSIFICATION_TYPE = U
NORAD_CAT_ID   = 24298
ELEMENT_SET_NO = 999
REV_AT_EPOCH   = 51906
BSTAR          = .69861E-4
MEAN_MOTION_DOT = .8E-6
MEAN_MOTION_DDOT = 0

CCSDS_OMM_VERS = 2.0
CREATION_DATE  = 
ORIGINATOR     = 

OBJECT_NAME    = ORBVIEW 2 (SEASTAR)
OBJECT_ID      = 1997-037A
CENTER_NAME    = EARTH
REF_FRAME      = TEME
TIME_SYSTEM    = UTC
MEAN_ELEMENT_THEORY = SGP/SGP4

EPOCH          = 2026-02-19T10:25:54.596352
MEAN_MOTION    = 14.35479723
ECCENTRICITY   = .0003163
INCLINATION    = 98.8533
RA_OF_ASC_NODE = 214.2658
ARG_OF_PERICENTER = 108.8416
MEAN_ANOMALY   = 251.3112

EPHEMERIS_TYPE = 0
CLASSIFICATION_TYPE = U
NORAD_CAT_ID   = 24883
ELEMENT_SET_NO = 999
REV_AT_EPOCH   = 50585
BSTAR          = .98718E-4
MEAN_MOTION_DOT = .237E-5
MEAN_MOTION_DDOT = 0

